NORAD_CAT_ID,OBJECT_NAME,OBJECT_TYPE,EPOCH,MEAN_MOTION,ECCENTRICITY,INCLINATION,RA_OF_ASC_NODE,ARG_OF_PERICENTER,MEAN_ANOMALY,BSTAR,MEAN_MOTION_DOT,MEAN_MOTION_DDOT,TLE_LINE0,TLE_LINE1,TLE_LINE2,SEMIMAJOR_AXIS,PERIOD,APOGEE,PERIGEE,DECAYED
52295.0,STARLINK-3765,PAYLOAD,2022-12-29 04:52:27,15.08830976,0.0002072,53.2197,295.6794,33.4296,326.6827,-4.1501e-05,-9.48e-06,0.0,0 STARLINK-3765,1 52295U 22041AL  22363.20310100 -.00000948  00000-0 -41501-4 0  9993,2 52295  53.2197 295.6794 0002072  33.4296 326.6827 15.08830976 39623,6917.908,95.438,541.206,538.34,0.0
52295.0,STARLINK-3765,PAYLOAD,2022-12-29 12:49:24,15.08825605,0.0002249,53.2186,294.1914,34.7987,325.3152,-0.0001824,-3.189e-05,0.0,0 STARLINK-3765,1 52295U 22041AL  22363.53431052 -.00003189  00000-0 -18240-3 0  9992,2 52295  53.2186 294.1914 0002249  34.7987 325.3152 15.08825605 39671,6917.924,95.438,541.345,538.234,0.0
52295.0,STARLINK-3765,PAYLOAD,2022-12-30 04:43:15,15.08838678,0.0002283,53.2191,291.2185,35.4703,324.6441,-9.3276e-05,-1.773e-05,0.0,0 STARLINK-3765,1 52295U 22041AL  22364.19670276 -.00001773  00000-0 -93276-4 0  9998,2 52295  53.2191 291.2185 0002283  35.4703 324.6441 15.08838678 39775,6917.884,95.438,541.3290000000002,538.17,0.0
52295.0,STARLINK-3765,PAYLOAD,2022-12-30 12:40:10,15.08847439,0.0002231999999999,53.2195,289.7325,35.1874,324.9265,1.1465e-05,-1.06e-06,0.0,0 STARLINK-3765,1 52295U 22041AL  22364.52789505 -.00000106  00000-0  11465-4 0  9999,2 52295  53.2195 289.7325 0002232  35.1874 324.9265 15.08847439 39825,6917.858,95.437,541.2669999999998,538.179,0.0
52295.0,STARLINK-3765,PAYLOAD,2022-12-31 04:33:59,15.08860045,0.0002128,53.2182,286.756,37.278,322.8359,0.00037242,5.647e-05,0.0,0 STARLINK-3765,1 52295U 22041AL  22365.19027489  .00005647  00000-0  37242-3 0  9993,2 52295  53.2182 286.7560 0002128  37.2780 322.8359 15.08860045 39922,6917.819,95.436,541.156,538.212,0.0
52295.0,STARLINK-3765,PAYLOAD,2022-12-31 12:30:56,15.08849277,0.0002421999999999,53.2181,285.2685,47.4005,312.7191,0.00033803,5.097e-05,0.0,0 STARLINK-3765,1 52295U 22041AL  22365.52148220  .00005097  00000-0  33803-3 0  9995,2 52295  53.2181 285.2685 0002422  47.4005 312.7191 15.08849277 39974,6917.852,95.437,541.393,538.0419999999998,0.0
52295.0,STARLINK-3765,PAYLOAD,2023-01-01 04:24:48,15.08832915,0.0002323999999999,53.2202,282.2999,27.9516,332.1601,7.1812e-05,8.55e-06,0.0,0 STARLINK-3765,1 52295U 22041AL  23001.18389829  .00000855  00000-0  71812-4 0  9997,2 52295  53.2202 282.2999 0002324  27.9516 332.1601 15.08832915 40070,6917.901999999999,95.438,541.375,538.159,0.0
52295.0,STARLINK-3765,PAYLOAD,2023-01-02 01:04:51,15.08824057,0.000237,53.2199,278.4352,31.1686,328.9446,-0.00023762,-4.067e-05,0.0,0 STARLINK-3765,1 52295U 22041AL  23002.04503681 -.00004067  00000-0 -23762-3 0  9998,2 52295  53.2199 278.4352 0002370  31.1686 328.9446 15.08824057 40204,6917.929,95.439,541.434,538.155,0.0
52295.0,STARLINK-3765,PAYLOAD,2023-01-02 04:15:36,15.08840749,0.0002369,53.219,277.8369,39.8616,320.2549,-0.00024047,-4.114e-05,0.0,0 STARLINK-3765,1 52295U 22041AL  23002.17750741 -.00004114  00000-0 -24047-3 0  9993,2 52295  53.2190 277.8369 0002369  39.8616 320.2549 15.08840749 40229,6917.878000000002,95.438,541.382,538.104,0.0
52295.0,STARLINK-3765,PAYLOAD,2023-01-02 18:34:04,15.08837177,0.0002251999999999,53.2195,275.1605,37.8959,322.2191,2.5382e-05,1.16e-06,0.0,0 STARLINK-3765,1 52295U 22041AL  23002.77366093  .00000116  00000-0  25382-4 0  9992,2 52295  53.2195 275.1605 0002252  37.8959 322.2191 15.08837177 39096,6917.889,95.438,541.312,538.196,0.0
52295.0,STARLINK-3765,PAYLOAD,2023-01-03 10:27:55,15.088382,0.0002360999999999,53.219,272.1881,35.8879,324.2271,0.00018378,2.638e-05,0.0,0 STARLINK-3765,1 52295U 22041AL  23003.43606215  .00002638  00000-0  18378-3 0  9996,2 52295  53.2190 272.1881 0002361  35.8879 324.2271 15.08838200 40411,6917.886,95.438,541.384,538.118,0.0
52295.0,STARLINK-3765,PAYLOAD,2023-01-03 18:24:52,15.08827375,0.0002282,53.2189,270.7034,42.2855,317.8313,0.00011848,1.597e-05,0.0,0 STARLINK-3765,1 52295U 22041AL  23003.76727608  .00001597  00000-0  11848-3 0  9990,2 52295  53.2189 270.7034 0002282  42.2855 317.8313 15.08827375 40462,6917.919,95.438,541.363,538.205,0.0
52295.0,STARLINK-3765,PAYLOAD,2023-01-04 10:18:43,15.08835049,0.0002217,53.2182,267.7286,33.7262,326.3871,0.00010449,1.375e-05,0.0,0 STARLINK-3765,1 52295U 22041AL  23004.42967558  .00001375  00000-0  10449-3 0  9994,2 52295  53.2182 267.7286 0002217  33.7262 326.3871 15.08835049 39341,6917.896,95.438,541.294,538.227,0.0
52295.0,STARLINK-3765,PAYLOAD,2023-01-05 02:12:33,15.0885827,0.0002253,53.2182,264.754,34.547,325.5669,0.00027033,4.019e-05,0.0,0 STARLINK-3765,1 52295U 22041AL  23005.09205504  .00004019  00000-0  27033-3 0  9999,2 52295  53.2182 264.7540 0002253  34.5470 325.5669 15.08858270 40665,6917.825,95.436,541.248,538.131,0.0
52295.0,STARLINK-3765,PAYLOAD,2023-01-05 10:09:30,15.08836848,0.0001986,53.219,263.2688,38.3323,321.781,-1.2944e-05,-4.94e-06,0.0,0 STARLINK-3765,1 52295U 22041AL  23005.42327436 -.00000494  00000-0 -12944-4 0  9996,2 52295  53.2190 263.2688 0001986  38.3323 321.7810 15.08836848 40711,6917.89,95.438,541.129,538.381,0.0
52295.0,STARLINK-3765,PAYLOAD,2023-01-05 18:06:28,15.08813794,0.0002073999999999,53.2175,261.7804,37.728,322.3857,-3.2348e-05,-8.03e-06,0.0,0 STARLINK-3765,1 52295U 22041AL  23005.75449343 -.00000803  00000-0 -32348-4 0  9998,2 52295  53.2175 261.7804 0002074  37.7280 322.3857 15.08813794 39543,6917.96,95.439,541.26,538.391,0.0
52295.0,STARLINK-3765,PAYLOAD,2023-01-06 10:00:17,15.08852157,0.0001911,53.2174,258.8089,43.2064,316.9078,0.00022862,3.353e-05,0.0,0 STARLINK-3765,1 52295U 22041AL  23006.41686518  .00003353  00000-0  22862-3 0  9999,2 52295  53.2174 258.8089 0001911  43.2064 316.9078 15.08852157 40862,6917.843000000002,95.437,541.03,538.386,0.0
52295.0,STARLINK-3765,PAYLOAD,2023-01-06 16:21:50,15.08839874,0.0002176,53.2147,257.6187,55.878,304.2419,2.0991e-05,4.6e-07,0.0,0 STARLINK-3765,1 52295U 22041AL  23006.68183146  .00000046  00000-0  20991-4 0  9995,2 52295  53.2147 257.6187 0002176  55.8780 304.2419 15.08839874 40901,6917.880999999999,95.438,541.251,538.24,0.0
52295.0,STARLINK-3765,PAYLOAD,2023-01-07 01:54:09,15.08838086,0.0002204,53.2163,255.8337,58.2318,301.8889,-0.00016361,-2.891e-05,0.0,0 STARLINK-3765,1 52295U 22041AL  23007.07927399 -.00002891  00000-0 -16361-3 0  9992,2 52295  53.2163 255.8337 0002204  58.2318 301.8889 15.08838086 39740,6917.886,95.438,541.276,538.227,0.0
52295.0,STARLINK-3765,PAYLOAD,2023-01-07 16:12:38,15.088259,0.0002056,53.2172,253.1574,58.5154,301.6038,0.00022577,3.305e-05,0.0,0 STARLINK-3765,1 52295U 22041AL  23007.67544120  .00003305  00000-0  22577-3 0  9990,2 52295  53.2172 253.1574 0002056  58.5154 301.6038 15.08825900 41052,6917.923000000002,95.438,541.211,538.366,0.0
52295.0,STARLINK-3765,PAYLOAD,2023-01-07 22:34:10,15.08828511,0.000168,53.2178,251.9691,52.6469,307.4676,0.00023443,3.444e-05,0.0,0 STARLINK-3765,1 52295U 22041AL  23007.94040031  .00003444  00000-0  23443-3 0  9999,2 52295  53.2178 251.9691 0001680  52.6469 307.4676 15.08828511 39870,6917.916,95.438,540.943,538.618,0.0
52295.0,STARLINK-3765,PAYLOAD,2023-01-08 12:52:38,15.08839203,0.0001809,53.2175,249.2915,69.5537,290.5649,6.8264e-05,7.98e-06,0.0,0 STARLINK-3765,1 52295U 22041AL  23008.53655703  .00000798  00000-0  68264-4 0  9993,2 52295  53.2175 249.2915 0001809  69.5537 290.5649 15.08839203 41181,6917.883000000002,95.438,540.999,538.496,0.0
52295.0,STARLINK-3765,PAYLOAD,2023-01-08 19:14:11,15.08821445,0.0001624,53.2177,248.1023,72.6996,287.4174,0.00039262,5.963e-05,0.0,0 STARLINK-3765,1 52295U 22041AL  23008.80152375  .00005963  00000-0  39262-3 0  9994,2 52295  53.2177 248.1023 0001624  72.6996 287.4174 15.08821445 41222,6917.937,95.439,540.9259999999998,538.679,0.0
52295.0,STARLINK-3765,PAYLOAD,2023-01-09 15:54:12,15.08839387,0.0001730999999999,53.2175,244.2369,72.893,287.2251,0.00010148,1.327e-05,0.0,0 STARLINK-3765,1 52295U 22041AL  23009.66263995  .00001327  00000-0  10148-3 0  9992,2 52295  53.2175 244.2369 0001731  72.8930 287.2251 15.08839387 41351,6917.882,95.438,540.945,538.55,0.0
52295.0,STARLINK-3765,PAYLOAD,2023-01-09 22:15:44,15.08840947,0.0001712,53.2175,243.0472,74.3825,285.7356,0.0001107,1.474e-05,0.0,0 STARLINK-3765,1 52295U 22041AL  23009.92759854  .00001474  00000-0  11070-3 0  9993,2 52295  53.2175 243.0472 0001712  74.3825 285.7356 15.08840947 40174,6917.877,95.437,540.927,538.558,0.0
52295.0,STARLINK-3765,PAYLOAD,2023-01-10 14:09:36,15.08836499,0.0001634,53.2175,240.074,76.2343,283.8831,6.5832e-05,7.6e-06,0.0,0 STARLINK-3765,1 52295U 22041AL  23010.59000220  .00000760  00000-0  65832-4 0  9997,2 52295  53.2175 240.0740 0001634  76.2343 283.8831 15.08836499 40273,6917.891,95.438,540.886,538.626,0.0
52295.0,STARLINK-3765,PAYLOAD,2023-01-10 18:55:45,15.08838226,0.0001644,53.2174,239.182,76.2583,283.8592,7.277600000000001e-05,8.7e-06,0.0,0 STARLINK-3765,1 52295U 22041AL  23010.78872105  .00000870  00000-0  72776-4 0  9994,2 52295  53.2174 239.1820 0001644  76.2583 283.8592 15.08838226 41520,6917.886,95.438,540.888,538.614,0.0
52295.0,STARLINK-3765,PAYLOAD,2023-01-11 07:38:50,15.08850566,0.000181,53.217,236.803,84.0457,276.0741,-4.0189e-05,-9.28e-06,0.0,0 STARLINK-3765,1 52295U 22041AL  23011.31864020 -.00000928  00000-0 -40189-4 0  9990,2 52295  53.2170 236.8030 0001810  84.0457 276.0741 15.08850566 40389,6917.848000000001,95.437,540.965,538.461,0.0
52295.0,STARLINK-3765,PAYLOAD,2023-01-11 21:57:18,15.08838568,0.0001498,53.216,234.1289,89.5527,270.5637,6.4861e-05,7.44e-06,0.0,0 STARLINK-3765,1 52295U 22041AL  23011.91480251  .00000744  00000-0  64861-4 0  9993,2 52295  53.2160 234.1289 0001498  89.5527 270.5637 15.08838568 40476,6917.885,95.438,540.786,538.7130000000002,0.0
